GIOVE-A                 
1 28922U 05051A   13241.00993603 -.00000025  00000-0  00000+0 0  1398
2 28922  56.3805 116.8655 0005855  22.7352 273.2368  1.69431381 47556
GIOVE-B                 
1 32781U 08020A   13239.88570199 -.00000028  00000-0  10000-3 0  7652
2 32781  56.8817 152.3410 0001975 216.9226 143.0864  1.65405253 33120
GALILEO-PFM (GSAT0101)  
1 37846U 11060A   13240.06326359 -.00000029  00000-0  00000+0 0  2624
2 37846  54.9271 110.7953 0001558 313.9087 333.8178  1.70474678 11520
GALILEO-FM2 (GSAT0102)  
1 37847U 11060B   13239.39009166 -.00000030  00000-0  00000+0 0  2658
2 37847  54.9275 110.8129 0002619 280.7259 354.4813  1.70474947 11515
GALILEO-FM3 (GSAT0103)  
1 38857U 12055A   13239.05156783  .00000032  00000-0  00000+0 0  1308
2 38857  55.1968 230.6758 0004258 244.3820 115.5638  1.70473685  5432
GALILEO-FM4 (GSAT0104)  
1 38858U 12055B   13240.74616573  .00000036  00000-0  00000+0 0  1264
2 38858  55.1969 230.6269 0003389 249.8045 110.1537  1.70473635  5450
